#cP2017 11 11  0  0  0.00000000      96 ORBIT IGS14 HLM  IGS
## 1974 518400.00000000   900.00000000 58068 0.0000000000000
+   32   G01G02G03G04G05G06G07G08G09G10G11G12G13G14G15G16G17
+        G18G19G20G21G22G23G24G25G26G27G28G29G30G31G32  0  0
+          0  0  0  0  0  0  0  0  0  0  0  0  0  0  0  0  0
+          0  0  0  0  0  0  0  0  0  0  0  0  0  0  0  0  0
+          0  0  0  0  0  0  0  0  0  0  0  0  0  0  0  0  0
++         2  2  2  0  2  2  2  3  2  2  2  2  2  2  2  2  2
++         3  2  2  3  2  2  2  2  2  3  2  2  2  2  2  0  0
++         0  0  0  0  0  0  0  0  0  0  0  0  0  0  0  0  0
++         0  0  0  0  0  0  0  0  0  0  0  0  0  0  0  0  0
++         0  0  0  0  0  0  0  0  0  0  0  0  0  0  0  0  0
%c G  cc GPS ccc cccc cccc cccc cccc ccccc ccccc ccccc ccccc
%c cc cc ccc ccc cccc cccc cccc cccc ccccc ccccc ccccc ccccc
%f  1.2500000  1.025000000  0.00000000000  0.000000000000000
%f  0.0000000  0.000000000  0.00000000000  0.000000000000000
%i    0    0    0    0      0      0      0      0         0
%i    0    0    0    0      0      0      0      0         0
/* RAPID ORBIT COMBINATION FROM WEIGHTED AVERAGE OF:        
/* cod emr esa gfz jpl ngs sio usn whu                      
/* REFERENCED TO IGS TIME (IGST) AND TO WEIGHTED MEAN POLE: 
/* PCV:IGS14_1973 OL/AL:FES2004  NONE     Y  ORB:CMB CLK:CMB
*  2017 11 11  8 15  0.00000000
PG01  13369.639792 -17533.987487  14466.981868     -9.651932  3  5  5 104       
PG02 -14369.882380  -6245.890250 -20953.107621    283.770351  5  3  2 103       
PG03  21226.933679 -13679.180026  -8174.755945    -43.700845  6  5  5 124       
PG04  23108.786013  13227.504535   3317.055380 999999.999999
PG05 -24429.318789   1020.667187 -10724.532104    -23.100935  9  9  9 116       
PG06  -8571.959939 -18507.034043 -16991.147248    409.269725  4  7  7 137       
PG07   5623.113935 -25695.280658   -641.882966    281.092584  5  7  7 114       
PG08  19647.093048    209.161255  17978.341841    -80.210211  8  7  6 119       
PG09    807.380543 -17640.348247 -19869.567571    470.074387  6  5  6 118       
PG10   6788.347944  13720.133640  21734.435084    108.389393  5  6  5 120       
PG11  12091.290740 -13559.742852  18845.317098   -725.846573  5  5  4 127       
PG12 -23643.159229  10634.619693  -5442.521299    365.317548  4  7  6 106       
PG13 -20936.444418  -8560.604154  13791.088128    -93.819532  3  6  8 118       
PG14  18448.639554  19219.815937   1015.976673    -88.307903  7  8  6 113       
PG15 -18970.005267   3153.929641  18280.111825   -357.113224     7  6  95       
PG16  24865.676575     90.962414 -10022.501080     36.471258  7  8  6 110       
PG17 -12899.825142 -21211.751185  10023.250297   -145.323007  5  6  6 101       
PG18  -4594.034473  17904.701412  19607.663104    632.560398  6  8  8 108       
PG19 -17819.599710 -19475.009652   1223.320012   -476.253238  7  5  4 107       
PG20 -22461.369697  13666.987107   3495.260783    492.427999  6  6  5 103       
PG21  -1798.078149  26407.890315   2445.665801   -463.154248  8 10  6 118       
PG22  24486.487671 -10325.204590   -105.075119   -185.254757  3  4  4 124       
PG23  11787.003733 -10221.700239 -21261.810942   -218.614763  6  8  5 124       
PG24 -14167.563991  15079.422255  16408.481037    -42.072701     6  3 126       
PG25 -14233.157520  16197.278827 -15514.433154   -487.667182  6  1  4 117       
PG26  18259.687638   6751.569490 -18107.263179   -366.281103  4  5  6 120       
PG27  22553.081004  11027.531924   8955.604999    346.567720  8  7  8 115       
PG28  -1887.989604 -14900.036552  22545.402020    661.596434  6  7  3 103       
PG29  -6095.605640  14136.539122 -21658.251082    539.714060  7  7  8 110       
PG30   -914.096107 -24808.518368   9243.361749    128.765972  5  6  7 104       
PG31   9527.813759  16360.724004 -18390.638806    162.875683  7  5  5 123       
PG32  15597.747797  20104.084739   7746.599604   -522.320365  2  4  4 113       
*  2017 11 11  8 30  0.00000000
PG01  13278.600960 -15724.883854  16495.371965     -9.654167  4  5  5  95       
PG02 -14076.342429  -8699.488720 -20310.222765    283.761745  6  4  3  91       
PG03  22042.558303 -13735.190258  -5462.412468    -43.695962  5  4  4 122       
PG04  23184.749199  13542.082255    510.198724 999999.999999
PG05 -23278.312748    290.503477 -13073.704477    -23.099793  9  9  8 110       
PG06  -8153.243174 -20300.009494 -15039.042588    409.271308  4  7  7 127       
PG07   5866.196395 -25388.476990  -3510.388236    281.087913  5  6  7 114       
PG08  21096.254515   1506.179544  16189.211897    -80.212112  8  8  6 114       
PG09   2703.519285 -16291.992465 -20832.308326    470.078676  6  6  6 121       
PG10   4481.733301  14635.675283  21723.191350    108.396447  5  6  6 109       
PG11  12837.180215 -11338.021994  19758.906339   -725.848261  5  5  4 125       
PG12 -24120.569399  10594.002102  -2570.021135    365.316118  3  6  6 102       
PG13 -21830.704057  -9730.697295  11447.416799    -93.819900  4  6  8 105       
PG14  18106.959020  19226.252167   3846.557864    -88.308783  7  8  6 106       
PG15 -20557.366122   1869.280622  16724.381024   -357.113345  2  7  6  93       
PG16  23701.571061    575.415661 -12510.881781     36.470967  8  9  6  98       
PG17 -11874.754320 -20514.641499  12511.279885   -145.320795  5  5  6  97       
PG18  -6549.962937  18618.633459  18287.053537    632.560591  7  9  8  98       
PG19 -17423.685317 -19400.182037   4106.691021   -476.251101  7  6  2 102       
PG20 -22853.425780  13474.210206    720.155808    492.429376  6  5  5  87       
PG21  -2114.747836  26410.739261   -372.441151   -463.151342  8 10  7 110       
PG22  24523.105361  -9950.555928   2668.503894   -185.266333  4  5  3 121       
PG23  13715.130516  -8687.818204 -20826.453866   -218.615063  7  8  6 119       
PG24 -14144.113682  13065.799862  18085.578864    -42.072665     5  4 123       
PG25 -15813.657068  16635.419142 -13326.431528   -487.672867  7  2  4 106       
PG26  16319.915230   7691.729613 -19519.198287   -366.268888  4  5  5 117       
PG27  23125.557531  11708.842399   6259.795943    346.571011  8  7  8 116       
PG28    426.912725 -15579.278626  22147.700768    661.599255  6  6  3 103       
PG29  -7971.928812  12496.152526 -22053.055300    539.709862  6  6  8 105       
PG30   -450.601388 -25644.036968   6608.443435    128.763560  6  5  7 105       
PG31   9006.306501  18331.320131 -16687.199106    162.873420  8  5  5 113       
PG32  14640.635261  19655.949274  10334.099060   -522.323350  1  4  5 108       
*  2017 11 11  8 45  0.00000000
PG01  13263.085455 -13699.781584  18233.928071     -9.656349  4  5  5  86       
PG02 -13907.380100 -11064.786285 -19303.189985    283.752657  6  5  4  82       
PG03  22570.835244 -13701.384069  -2655.838840    -43.691068  4  4  5 100       
PG04  23004.680188  13695.982654  -2305.171685 999999.999999
PG05 -21939.571894   -606.971456 -15201.383293    -23.098732 10  9  8 105       
PG06  -7850.423036 -21877.438683 -12827.737379    409.272795  4  7  7 120       
PG07   6091.074300 -24770.687262  -6316.599863    281.083209  5  4  7 107       
PG08  22432.917210   2600.848200  14123.808633    -80.213480  8  9  7 105       
PG09   4738.886220 -14992.198640 -21437.557999    470.082967  6  6  5 131       
PG10   2244.885540  15661.047071  21338.754125    108.403491  5  6  6 104       
PG11  13701.869624  -9066.279182  20316.238093   -725.849748  6  5  4 120       
PG12 -24293.459899  10457.270884    347.148966    365.314639  1  5  6  97       
PG13 -22578.564205 -10665.939417   8905.406491    -93.820978  5  6  8 122       
PG14  17524.431872  19049.598023   6611.909264    -88.309604  7  8  5  97       
PG15 -22036.464918    762.000898  14881.045025   -357.113430  3  8  6  98       
PG16  22316.405318   1220.242979 -14789.821669     36.470739  8  9  6  87       
PG17 -10603.107452 -19712.738803  14789.789077   -145.318739  5  5  7  99       
PG18  -8330.506823  19349.658227  16663.745081    632.560963  7  9  8  99       
PG19 -16774.688100 -19136.948599   6918.040568   -476.249335  6  5  4  70       
PG20 -22983.633776  13140.977746  -2067.388412    492.430176  4  5  5  91       
PG21  -2423.341657  26109.961178  -3184.016249   -463.148156  8  9  7 114       
PG22  24302.928170  -9435.911461   5396.376955   -185.277621  5  6  3 114       
PG23  15654.352309  -7293.169366 -20026.469816   -218.615129  7  9  6 115       
PG24 -14209.696934  10882.361189  19446.389482    -42.073001  1  5  4 111       
PG25 -17133.142397  17048.451587 -10908.594196   -487.678546  6  3  5  99       
PG26  14303.971521   8792.737660 -20596.003492   -366.256685  5  4  5 115       
PG27  23479.486558  12180.257968   3457.510687    346.574307  8  7  8 110       
PG28   2640.095172 -16369.926854  21390.451108    661.602184  5  6  3  93       
PG29  -9954.938354  10948.172992 -22068.887648    539.705854  6  5  7 104       
PG30    -72.639385 -26199.540674   3858.829285    128.761132  6  5  7  91       
PG31   8612.053443  20118.404099 -14690.515524    162.871062  8  4  6 110       
PG32  13429.176279  19097.666268  12744.513640   -522.326294  1  5  5 104       
EOF
